# FY3D (LEO)
1 43010U 17072A   25240.59718360  .00000109  00000+0  73538-4 0  9996
2 43010  98.9695 205.4140 0001980 131.4599 228.6746 14.19635670403477

# FY3E (LEO)
1 49008U 21062A   25240.61897027  .00000006  00000+0  23385-4 0  9995
2 49008  98.7461 242.3851 0001395 166.1157 194.0058 14.19859011215068

# FY3F (LEO)
1 57490U 23111A   25240.60627956  .00000065  00000+0  51136-4 0  9997
2 57490  98.7216 310.5432 0001008 115.6348 244.4933 14.19854351107340

# FY3G (LEO)
1 56232U 23055A   25240.63686118  .00036969  00000+0  58282-3 0  9995
2 56232  49.9949  54.6102 0016803  28.3032 331.8845 15.52979729134532

# C2E1 (LEO)
1 44349U 19036L   25240.31637382  .00004275  00000+0  33346-3 0  9998
2 44349  23.9969 208.6950 0001257 132.7432 227.3174 14.97365718340713

# C2E2 (LEO)
1 44351U 19036N   25240.42705963  .00004237  00000+0  33018-3 0  9998
2 44351  23.9994 324.3505 0001443 121.9380 238.1262 14.97372484339663

# C2E3 (LEO)
1 44343U 19036E   25240.57323452  .00006737  00000+0  42455-3 0  9996
2 44343  23.9997  27.6666 0001373  56.1250 303.9384 15.06292971339013

# C2E4 (LEO)
1 44350U 19036M   25240.47070413  .00004088  00000+0  31776-3 0  9990
2 44350  23.9983 269.7300 0001506 125.9805 234.0836 14.97360466340156

# C2E5 (LEO)
1 44358U 19036V   25239.95528748  .00004677  00000+0  36381-3 0  9999
2 44358  23.9984  87.3657 0001349  13.3792 346.6744 14.97714450338357

# C2E6 (LEO)
1 44353U 19036Q   25240.09375535  .00004595  00000+0  36039-3 0  9994
2 44353  23.9968 147.4222 0001449 147.6580 212.4010 14.97355894337849

# G01 (GNSS)
1 62339U 24242A   25240.43794858 -.00000108  00000+0  00000+0 0  9996
2 62339  54.9554 346.0468 0007064 344.3614 200.0882  2.00559951  5382

# G02 (GNSS)
1 28474U 04045A   25240.13463208 -.00000104  00000+0  00000+0 0  9992
2 28474  55.2902 336.6946 0166969 305.5574  51.3301  2.00564779152543

# G03 (GNSS)
1 40294U 14068A   25239.76117410 -.00000065  00000+0  00000+0 0  9996
2 40294  56.7806  42.2805 0061997  69.3122 291.3679  2.00558421 79324

# G04 (GNSS)
1 43873U 18109A   25240.08338030 -.00000018  00000+0  00000+0 0  9990
2 43873  55.5018 103.7589 0034770 194.8293 337.5916  2.00573679 49197

# G05 (GNSS)
1 35752U 09043A   25240.52385821 -.00000066  00000+0  00000+0 0  9996
2 35752  56.0193  38.9684 0055203  81.1941 329.4643  2.00571908117490

# G06 (GNSS)
1 39741U 14026A   25240.29634090 -.00000105  00000+0  00000+0 0  9998
2 39741  56.6224 342.9169 0035373 317.5839  42.1753  2.00569051 82664

# G07 (GNSS)
1 32711U 08012A   25239.97810451  .00000009  00000+0  00000+0 0  9998
2 32711  54.4664 161.6351 0200471 244.0845 113.8565  2.00560991127875

# G08 (GNSS)
1 40730U 15033A   25240.05739861 -.00000018  00000+0  00000+0 0  9996
2 40730  54.2180 279.1607 0105102  25.2586 335.3125  2.00571256 74118

# G09 (GNSS)
1 40105U 14045A   25239.88859709 -.00000020  00000+0  00000+0 0  9990
2 40105  55.1586 100.1621 0032235 116.5556 243.8582  2.00566045 80195

# G10 (GNSS)
1 41019U 15062A   25239.61629664 -.00000066  00000+0  00000+0 0  9991
2 41019  56.7559  42.1422 0105968 227.8832 131.2286  2.00567169 71940

# G11 (GNSS)
1 48859U 21054A   25240.35561339 -.00000107  00000+0  00000+0 0  9991
2 48859  55.2934 344.2262 0022547 227.0429 142.0438  2.00559514 30885

# G12 (GNSS)
1 29601U 06052A   25240.25382646  .00000049  00000+0  00000+0 0  9991
2 29601  55.0000 225.6198 0084811  86.8980 274.0603  2.00567350137533

# G13 (GNSS)
1 24876U 97035A   25240.03640162 -.00000016  00000+0  00000+0 0  9992
2 24876  55.8387 110.0431 0094615  55.8587 305.1205  2.00562849206075

# G14 (GNSS)
1 46826U 20078A   25240.34393880  .00000048  00000+0  00000+0 0  9994
2 46826  54.0447 222.6560 0062226 203.5468 326.8752  2.00567254 35632

# G15 (GNSS)
1 32260U 07047A   25238.06559127 -.00000018  00000+0  00000+0 0  9994
2 32260  53.8747  92.2472 0164050  83.1808 278.7691  2.00569046130892

# G16 (GNSS)
1 27663U 03005A   25240.00514090  .00000046  00000+0  00000+0 0  9992
2 27663  54.9562 226.6189 0143619  50.5046 351.7211  2.00550306165435

# G17 (GNSS)
1 28874U 05038A   25240.62655887 -.00000023  00000+0  00000+0 0  9999
2 28874  55.1202 284.9724 0133633 290.9883  24.6407  2.00555385145961

# G18 (GNSS)
1 44506U 19056A   25238.99558788 -.00000108  00000+0  00000+0 0  9997
2 44506  55.7600 342.8304 0055957 194.9885 168.6141  2.00563582 44177

# G19 (GNSS)
1 28190U 04009A   25240.32429296 -.00000031  00000+0  00000+0 0  9996
2 28190  55.0751 287.5073 0107308 164.7723 270.3075  2.00564994157079

# G20 (GNSS)
1 26360U 00025A   25239.42533226 -.00000083  00000+0  00000+0 0  9992
2 26360  54.9837  31.1756 0036431 233.6295 134.7812  2.00576097185382

# G21 (GNSS)
1 64202U 25116A   25239.67360558 -.00000068  00000+0  00000+0 0  9993
2 64202  55.0273  42.9627 0001687 296.7027 246.9872  2.00566023  1983

# G22 (GNSS)
1 26407U 00040A   25240.37170332  .00000050  00000+0  00000+0 0  9995
2 26407  54.9221 226.7939 0131459 299.5970 233.1747  2.00566800184070

# G23 (GNSS)
1 45854U 20041A   25239.80526380 -.00000068  00000+0  00000+0 0  9999
2 45854  56.4728  40.3476 0056739 199.5661 333.5078  2.00564856 38153

# G24 (GNSS)
1 38833U 12053A   25239.15924174  .00000006  00000+0  00000+0 0  9994
2 38833  53.5430 155.6448 0170393  61.9140 299.8236  2.00563965 93540

# G25 (GNSS)
1 36585U 10022A   25240.03943537  .00000046  00000+0  00000+0 0  9997
2 36585  54.3261 220.3725 0121774  64.1649 117.9429  2.00573753111719

# G26 (GNSS)
1 40534U 15013A   25239.89507343  .00000042  00000+0  00000+0 0  9990
2 40534  53.2239 216.3101 0101348  35.8462 324.8057  2.00568966 75947

# G27 (GNSS)
1 39166U 13023A   25240.02025586 -.00000021  00000+0  00000+0 0  9997
2 39166  54.7387 280.9048 0133003  48.1356 313.0546  2.00565735 90003

# G28 (GNSS)
1 55268U 23009A   25232.06294610 -.00000038  00000+0  00000+0 0  9992
2 55268  55.0964 160.3489 0003753 342.0663 199.8046  2.00564478 19205

# G29 (GNSS)
1 32384U 07062A   25240.38378265 -.00000027  00000+0  00000+0 0  9998
2 32384  55.2689 285.9112 0032646 162.7080 199.7923  2.00572249129643

# G30 (GNSS)
1 39533U 14008A   25240.01807368  .00000008  00000+0  00000+0 0  9998
2 39533  53.6194 161.2769 0078503 226.3474 133.0190  2.00568157 83806

# G31 (GNSS)
1 29486U 06042A   25239.84269234  .00000011  00000+0  00000+0 0  9990
2 29486  54.6863 162.9825 0105723  48.5845 323.1136  2.00558550138515

# G32 (GNSS)
1 41328U 16007A   25240.19656718 -.00000020  00000+0  00000+0 0  9999
2 41328  55.3392 101.0859 0088264 242.5940 116.5864  2.00566368 69962

# C06 (GNSS)
1 36828U 10036A   25239.77615218 -.00000120  00000+0  00000+0 0  9997
2 36828  54.2796 165.6193 0048476 216.9045 338.9648  1.00256469 55159

# C04 (GNSS)
1 37210U 10057A   25240.65136350 -.00000110  00000+0  00000+0 0  9999
2 37210   2.9155  70.2859 0007088 167.1707 134.2115  1.00272746 54353

# C07 (GNSS)
1 37256U 10068A   25237.55086240 -.00000179  00000+0  00000+0 0  9993
2 37256  48.0796 275.4934 0048600 216.0065 148.5250  1.00267349 53837

# C14 (GNSS)
1 38775U 12050B   25240.19012950 -.00000036  00000+0  00000+0 0  9996
2 38775  56.2834  72.6003 0011613 357.4494   2.6022  1.86231174 87859

# C01 (GNSS)
1 44231U 19027A   25240.62783652 -.00000245  00000+0  00000+0 0  9995
2 44231   1.3883  74.2694 0006507 271.6091   1.6507  1.00277148 23144

# C24 (GNSS)
1 43582U 18062B   25240.32974263  .00000037  00000+0  00000+0 0  9996
2 43582  54.0972 192.2504 0005511  14.1328 345.8574  1.86229906 48185

# C26 (GNSS)
1 43602U 18067A   25240.26635498  .00000036  00000+0  00000+0 0  9990
2 43602  54.1909 190.9739 0007895  27.9649 332.0530  1.86227747 47662

# C25 (GNSS)
1 43603U 18067B   25239.32666412  .00000031  00000+0  00000+0 0  9991
2 43603  54.1882 190.9700 0004576  13.5635 346.4196  1.86227248 47674

# C32 (GNSS)
1 43622U 18072A   25239.82148613 -.00000037  00000+0  00000+0 0  9998
2 43622  56.3636  72.3584 0004438 325.1772  34.8516  1.86231399 47193

# C33 (GNSS)
1 43623U 18072B   25239.15000719 -.00000037  00000+0  00000+0 0  9999
2 43623  56.3650  72.3745 0003966  15.9247 344.1472  1.86231397 47179

# C35 (GNSS)
1 43647U 18078A   25240.38305571 -.00000080  00000+0  00000+0 0  9990
2 43647  54.3543 310.2398 0005855  25.3225 334.7717  1.86232430 46706

# C34 (GNSS)
1 43648U 18078B   25239.97530061 -.00000081  00000+0  00000+0 0  9999
2 43648  54.3504 310.2552 0002524  38.2712 321.8126  1.86232487 46714

# C59 (GNSS)
1 43683U 18085A   25240.62688317 -.00000277  00000+0  00000+0 0  9995
2 43683   2.8400 105.9090 0003958   5.3826 231.4891  1.00269493 25125

# C36 (GNSS)
1 43706U 18093A   25239.88273660  .00000035  00000+0  00000+0 0  9998
2 43706  54.1809 192.2469 0009536 291.9921 260.8875  1.86228465 46073

# C37 (GNSS)
1 43707U 18093B   25240.53056227  .00000038  00000+0  00000+0 0  9994
2 43707  54.1816 192.2168 0007888 321.2735  38.6457  1.86230103 46086

# C38 (GNSS)
1 44204U 19023A   25240.33760992 -.00000200  00000+0  00000+0 0  9992
2 44204  58.2843  40.6733 0024909 215.5327 321.2478  1.00276621  4273

# C39 (GNSS)
1 44337U 19035A   25240.65700905 -.00000135  00000+0  00000+0 0  9992
2 44337  55.2153 161.4355 0034988 209.1960 319.2834  1.00248581 22731

# C46 (GNSS)
1 44542U 19061A   25240.06490851  .00000037  00000+0  00000+0 0  9990
2 44542  54.4088 192.6139 0008626 358.4906   1.4802  1.86229444 40333

# C45 (GNSS)
1 44543U 19061B   25240.47822503  .00000038  00000+0  00000+0 0  9990
2 44543  54.4071 192.5683 0005783 342.2912 207.5738  1.86229673 40340

# C40 (GNSS)
1 44709U 19073A   25239.52465809 -.00000165  00000+0  00000+0 0  9995
2 44709  55.3032 284.0720 0045714 191.1058 168.8854  1.00276787 21510

# C44 (GNSS)
1 44793U 19078A   25237.75864949 -.00000082  00000+0  00000+0 0  9992
2 44793  54.2031 310.2100 0004605  34.3354 325.7622  1.86232297 39142

# C43 (GNSS)
1 44794U 19078B   25238.96771486 -.00000083  00000+0  00000+0 0  9991
2 44794  54.1747 310.1349 0002642  22.3965 337.6819  1.86227906 39178
